ONEWEB-0427             
1 50499U 21132AG  26120.09511040  .00000028  00000+0  37403-4 0  9997
2 50499  87.9202 345.0001 0001712  91.6358 268.4970 13.18560619215276
ONEWEB-0429             
1 50500U 21132AH  26120.15755300 -.00000021  00000+0 -86825-4 0  9993
2 50500  87.9193 345.0161 0001830  79.7172 280.4166 13.18603533215259
ONEWEB-0430             
1 50501U 21132AJ  26120.14580931  .00000104  00000+0  23013-3 0  9998
2 50501  87.9194 345.0166 0001606  76.5526 283.5785 13.18644039215296
ONEWEB-0432             
1 50502U 21132AK  26120.17946597  .00000050  00000+0  95136-4 0  9992
2 50502  87.9199 344.9808 0001131  95.9205 264.2056 13.18786139215256
ONEWEB-0440             
1 50503U 21132AL  26120.09007461  .00000057  00000+0  11136-3 0  9996
2 50503  87.9204 345.0201 0002152  82.2681 277.8695 13.18581149215235
ONEWEB-0450             
1 50504U 21132AM  26120.15936982  .00000069  00000+0  14238-3 0  9992
2 50504  87.9191 345.0165 0001803  77.4771 282.6563 13.18598378215272
ONEWEB-0410             
1 51622U 22012A   26120.22562523  .00000098  00000+0  21986-3 0  9996
2 51622  87.9193  15.3835 0001978 121.6496 238.4829 13.17648071207388
ONEWEB-0411             
1 51623U 22012B   26120.21319862 -.00000381  00000+0 -11289-2 0  9993
2 51623  87.8863  45.8093 0001685  60.8827 299.2469 13.10375419203009
ONEWEB-0415             
1 51624U 22012C   26120.20987389 -.00000561  00000+0 -16420-2 0  9990
2 51624  87.8854  45.8118 0001678  72.3490 287.7820 13.10374137203003
ONEWEB-0416             
1 51625U 22012D   26120.22150379 -.00000044  00000+0 -16240-3 0  9991
2 51625  87.8856  45.8288 0001424  74.8515 285.2770 13.10376413203048
ONEWEB-0422             
1 51626U 22012E   26120.23574702  .00000129  00000+0  29866-3 0  9993
2 51626  87.9190  15.3838 0002325  69.8650 290.2731 13.17650276207494
ONEWEB-0423             
1 51627U 22012F   26120.22899648  .00000088  00000+0  19353-3 0  9996
2 51627  87.9185  15.3932 0001924  80.3671 279.7678 13.17648549207389
ONEWEB-0425             
1 51628U 22012G   26120.23147668  .00000500  00000+0  13951-2 0  9992
2 51628  87.8859  45.8087 0001897  89.0488 271.0857 13.10373815203044
ONEWEB-0428             
1 51629U 22012H   26120.21153764 -.00000448  00000+0 -13206-2 0  9991
2 51629  87.8853  45.8208 0001932  77.8907 282.2437 13.10375359203004
ONEWEB-0431             
1 51630U 22012J   26120.25789027  .00000244  00000+0  66237-3 0  9999
2 51630  87.8859  45.8023 0001786  58.9088 301.2214 13.10370310203067
ONEWEB-0434             
1 51631U 22012K   26120.23493122  .00000645  00000+0  18100-2 0  9996
2 51631  87.8859  45.8313 0002037  96.9803 263.1556 13.10374331203047
