[{"OBJECT_NAME":"ONEWEB-0427","OBJECT_ID":"2021-132AG","EPOCH":"2026-04-30T02:16:57.538560","MEAN_MOTION":13.18560619,"ECCENTRICITY":0.0001712,"INCLINATION":87.9202,"RA_OF_ASC_NODE":345.0001,"ARG_OF_PERICENTER":91.6358,"MEAN_ANOMALY":268.497,"EPHEMERIS_TYPE":0,"CLASSIFICATION_TYPE":"U","NORAD_CAT_ID":50499,"ELEMENT_SET_NO":999,"REV_AT_EPOCH":21527,"BSTAR":3.7403e-05,"MEAN_MOTION_DOT":2.8e-07,"MEAN_MOTION_DDOT":0.0},{"OBJECT_NAME":"ONEWEB-0429","OBJECT_ID":"2021-132AH","EPOCH":"2026-04-30T03:46:52.579200","MEAN_MOTION":13.18603533,"ECCENTRICITY":0.000183,"INCLINATION":87.9193,"RA_OF_ASC_NODE":345.0161,"ARG_OF_PERICENTER":79.7172,"MEAN_ANOMALY":280.4166,"EPHEMERIS_TYPE":0,"CLASSIFICATION_TYPE":"U","NORAD_CAT_ID":50500,"ELEMENT_SET_NO":999,"REV_AT_EPOCH":21525,"BSTAR":-8.6825e-05,"MEAN_MOTION_DOT":-2.1e-07,"MEAN_MOTION_DDOT":0.0},{"OBJECT_NAME":"ONEWEB-0430","OBJECT_ID":"2021-132AJ","EPOCH":"2026-04-30T03:29:57.924384","MEAN_MOTION":13.18644039,"ECCENTRICITY":0.0001606,"INCLINATION":87.9194,"RA_OF_ASC_NODE":345.0166,"ARG_OF_PERICENTER":76.5526,"MEAN_ANOMALY":283.5785,"EPHEMERIS_TYPE":0,"CLASSIFICATION_TYPE":"U","NORAD_CAT_ID":50501,"ELEMENT_SET_NO":999,"REV_AT_EPOCH":21529,"BSTAR":0.00023013,"MEAN_MOTION_DOT":1.04e-06,"MEAN_MOTION_DDOT":0.0},{"OBJECT_NAME":"ONEWEB-0432","OBJECT_ID":"2021-132AK","EPOCH":"2026-04-30T04:18:25.859808","MEAN_MOTION":13.18786139,"ECCENTRICITY":0.0001131,"INCLINATION":87.9199,"RA_OF_ASC_NODE":344.9808,"ARG_OF_PERICENTER":95.9205,"MEAN_ANOMALY":264.2056,"EPHEMERIS_TYPE":0,"CLASSIFICATION_TYPE":"U","NORAD_CAT_ID":50502,"ELEMENT_SET_NO":999,"REV_AT_EPOCH":21525,"BSTAR":9.5136e-05,"MEAN_MOTION_DOT":5e-07,"MEAN_MOTION_DDOT":0.0},{"OBJECT_NAME":"ONEWEB-0440","OBJECT_ID":"2021-132AL","EPOCH":"2026-04-30T02:09:42.446304","MEAN_MOTION":13.18581149,"ECCENTRICITY":0.0002152,"INCLINATION":87.9204,"RA_OF_ASC_NODE":345.0201,"ARG_OF_PERICENTER":82.2681,"MEAN_ANOMALY":277.8695,"EPHEMERIS_TYPE":0,"CLASSIFICATION_TYPE":"U","NORAD_CAT_ID":50503,"ELEMENT_SET_NO":999,"REV_AT_EPOCH":21523,"BSTAR":0.00011136,"MEAN_MOTION_DOT":5.7e-07,"MEAN_MOTION_DDOT":0.0},{"OBJECT_NAME":"ONEWEB-0450","OBJECT_ID":"2021-132AM","EPOCH":"2026-04-30T03:49:29.552448","MEAN_MOTION":13.18598378,"ECCENTRICITY":0.0001803,"INCLINATION":87.9191,"RA_OF_ASC_NODE":345.0165,"ARG_OF_PERICENTER":77.4771,"MEAN_ANOMALY":282.6563,"EPHEMERIS_TYPE":0,"CLASSIFICATION_TYPE":"U","NORAD_CAT_ID":50504,"ELEMENT_SET_NO":999,"REV_AT_EPOCH":21527,"BSTAR":0.00014238,"MEAN_MOTION_DOT":6.9e-07,"MEAN_MOTION_DDOT":0.0},{"OBJECT_NAME":"ONEWEB-0410","OBJECT_ID":"2022-012A","EPOCH":"2026-04-30T05:24:54.019872","MEAN_MOTION":13.17648071,"ECCENTRICITY":0.0001978,"INCLINATION":87.9193,"RA_OF_ASC_NODE":15.3835,"ARG_OF_PERICENTER":121.6496,"MEAN_ANOMALY":238.4829,"EPHEMERIS_TYPE":0,"CLASSIFICATION_TYPE":"U","NORAD_CAT_ID":51622,"ELEMENT_SET_NO":999,"REV_AT_EPOCH":20738,"BSTAR":0.00021986,"MEAN_MOTION_DOT":9.8e-07,"MEAN_MOTION_DDOT":0.0},{"OBJECT_NAME":"ONEWEB-0411","OBJECT_ID":"2022-012B","EPOCH":"2026-04-30T05:07:00.360768","MEAN_MOTION":13.10375419,"ECCENTRICITY":0.0001685,"INCLINATION":87.8863,"RA_OF_ASC_NODE":45.8093,"ARG_OF_PERICENTER":60.8827,"MEAN_ANOMALY":299.2469,"EPHEMERIS_TYPE":0,"CLASSIFICATION_TYPE":"U","NORAD_CAT_ID":51623,"ELEMENT_SET_NO":999,"REV_AT_EPOCH":20300,"BSTAR":-0.0011289000000000002,"MEAN_MOTION_DOT":-3.81e-06,"MEAN_MOTION_DDOT":0.0},{"OBJECT_NAME":"ONEWEB-0415","OBJECT_ID":"2022-012C","EPOCH":"2026-04-30T05:02:13.104096","MEAN_MOTION":13.10374137,"ECCENTRICITY":0.0001678,"INCLINATION":87.8854,"RA_OF_ASC_NODE":45.8118,"ARG_OF_PERICENTER":72.349,"MEAN_ANOMALY":287.782,"EPHEMERIS_TYPE":0,"CLASSIFICATION_TYPE":"U","NORAD_CAT_ID":51624,"ELEMENT_SET_NO":999,"REV_AT_EPOCH":20300,"BSTAR":-0.0016420000000000002,"MEAN_MOTION_DOT":-5.61e-06,"MEAN_MOTION_DDOT":0.0},{"OBJECT_NAME":"ONEWEB-0416","OBJECT_ID":"2022-012D","EPOCH":"2026-04-30T05:18:57.927456","MEAN_MOTION":13.10376413,"ECCENTRICITY":0.0001424,"INCLINATION":87.8856,"RA_OF_ASC_NODE":45.8288,"ARG_OF_PERICENTER":74.8515,"MEAN_ANOMALY":285.277,"EPHEMERIS_TYPE":0,"CLASSIFICATION_TYPE":"U","NORAD_CAT_ID":51625,"ELEMENT_SET_NO":999,"REV_AT_EPOCH":20304,"BSTAR":-0.0001624,"MEAN_MOTION_DOT":-4.4e-07,"MEAN_MOTION_DDOT":0.0},{"OBJECT_NAME":"ONEWEB-0422","OBJECT_ID":"2022-012E","EPOCH":"2026-04-30T05:39:28.542528","MEAN_MOTION":13.17650276,"ECCENTRICITY":0.0002325,"INCLINATION":87.919,"RA_OF_ASC_NODE":15.3838,"ARG_OF_PERICENTER":69.865,"MEAN_ANOMALY":290.2731,"EPHEMERIS_TYPE":0,"CLASSIFICATION_TYPE":"U","NORAD_CAT_ID":51626,"ELEMENT_SET_NO":999,"REV_AT_EPOCH":20749,"BSTAR":0.00029865999999999996,"MEAN_MOTION_DOT":1.29e-06,"MEAN_MOTION_DDOT":0.0},{"OBJECT_NAME":"ONEWEB-0423","OBJECT_ID":"2022-012F","EPOCH":"2026-04-30T05:29:45.295872","MEAN_MOTION":13.17648549,"ECCENTRICITY":0.0001924,"INCLINATION":87.9185,"RA_OF_ASC_NODE":15.3932,"ARG_OF_PERICENTER":80.3671,"MEAN_ANOMALY":279.7678,"EPHEMERIS_TYPE":0,"CLASSIFICATION_TYPE":"U","NORAD_CAT_ID":51627,"ELEMENT_SET_NO":999,"REV_AT_EPOCH":20738,"BSTAR":0.00019353,"MEAN_MOTION_DOT":8.8e-07,"MEAN_MOTION_DDOT":0.0},{"OBJECT_NAME":"ONEWEB-0425","OBJECT_ID":"2022-012G","EPOCH":"2026-04-30T05:33:19.585152","MEAN_MOTION":13.10373815,"ECCENTRICITY":0.0001897,"INCLINATION":87.8859,"RA_OF_ASC_NODE":45.8087,"ARG_OF_PERICENTER":89.0488,"MEAN_ANOMALY":271.0857,"EPHEMERIS_TYPE":0,"CLASSIFICATION_TYPE":"U","NORAD_CAT_ID":51628,"ELEMENT_SET_NO":999,"REV_AT_EPOCH":20304,"BSTAR":0.0013951,"MEAN_MOTION_DOT":5e-06,"MEAN_MOTION_DDOT":0.0},{"OBJECT_NAME":"ONEWEB-0428","OBJECT_ID":"2022-012H","EPOCH":"2026-04-30T05:04:36.852096","MEAN_MOTION":13.10375359,"ECCENTRICITY":0.0001932,"INCLINATION":87.8853,"RA_OF_ASC_NODE":45.8208,"ARG_OF_PERICENTER":77.8907,"MEAN_ANOMALY":282.2437,"EPHEMERIS_TYPE":0,"CLASSIFICATION_TYPE":"U","NORAD_CAT_ID":51629,"ELEMENT_SET_NO":999,"REV_AT_EPOCH":20300,"BSTAR":-0.0013206000000000001,"MEAN_MOTION_DOT":-4.48e-06,"MEAN_MOTION_DDOT":0.0},{"OBJECT_NAME":"ONEWEB-0431","OBJECT_ID":"2022-012J","EPOCH":"2026-04-30T06:11:21.719328","MEAN_MOTION":13.1037031,"ECCENTRICITY":0.0001786,"INCLINATION":87.8859,"RA_OF_ASC_NODE":45.8023,"ARG_OF_PERICENTER":58.9088,"MEAN_ANOMALY":301.2214,"EPHEMERIS_TYPE":0,"CLASSIFICATION_TYPE":"U","NORAD_CAT_ID":51630,"ELEMENT_SET_NO":999,"REV_AT_EPOCH":20306,"BSTAR":0.00066237,"MEAN_MOTION_DOT":2.44e-06,"MEAN_MOTION_DDOT":0.0},{"OBJECT_NAME":"ONEWEB-0434","OBJECT_ID":"2022-012K","EPOCH":"2026-04-30T05:38:18.057408","MEAN_MOTION":13.10374331,"ECCENTRICITY":0.0002037,"INCLINATION":87.8859,"RA_OF_ASC_NODE":45.8313,"ARG_OF_PERICENTER":96.9803,"MEAN_ANOMALY":263.1556,"EPHEMERIS_TYPE":0,"CLASSIFICATION_TYPE":"U","NORAD_CAT_ID":51631,"ELEMENT_SET_NO":999,"REV_AT_EPOCH":20304,"BSTAR":0.00181,"MEAN_MOTION_DOT":6.45e-06,"MEAN_MOTION_DDOT":0.0}]